[{"OBJECT_NAME":"STARLINK-35270","OBJECT_ID":"2025-224A","EPOCH":"2026-03-09T03:56:38.059296","MEAN_MOTION":15.30180919,"ECCENTRICITY":0.00014123,"INCLINATION":53.1621,"RA_OF_ASC_NODE":13.8109,"ARG_OF_PERICENTER":108.1544,"MEAN_ANOMALY":251.9611,"EPHEMERIS_TYPE":0,"CLASSIFICATION_TYPE":"U","NORAD_CAT_ID":65882,"ELEMENT_SET_NO":999,"REV_AT_EPOCH":2474,"BSTAR":-0.00019196423,"MEAN_MOTION_DOT":-6.037e-5,"MEAN_MOTION_DDOT":0},{"OBJECT_NAME":"TRANSPORTER-1 OBJECT Z","OBJECT_ID":"2021-006Z","EPOCH":"2026-03-09T22:55:57.522432","MEAN_MOTION":15.30965056,"ECCENTRICITY":0.00100878,"INCLINATION":97.2377,"RA_OF_ASC_NODE":113.4736,"ARG_OF_PERICENTER":179.6869,"MEAN_ANOMALY":180.438,"EPHEMERIS_TYPE":0,"CLASSIFICATION_TYPE":"U","NORAD_CAT_ID":47436,"ELEMENT_SET_NO":999,"REV_AT_EPOCH":28420,"BSTAR":0.00024088983,"MEAN_MOTION_DOT":7.143e-5,"MEAN_MOTION_DDOT":0}]
